STARLINK-2061           
1 48312U 21036AN  26196.41962938 -.00000279  00000+0  27944-5 0  9995
2 48312  53.1600 214.1032 0001640  68.1487 291.9689 15.31701911287799
STARLINK-2549           
1 48314U 21036AQ  26196.33140619 -.00000405  00000+0 -12919-5 0  9990
2 48314  53.1591 216.9895 0001292  82.1467 277.9681 15.31696880287732
STARLINK-2506           
1 48315U 21036AR  26196.54322749 -.00000495  00000+0 -41747-5 0  9990
2 48315  53.1590 224.0478 0001105  82.8021 277.3106 15.31693962287649
STARLINK-2507           
1 48316U 21036AS  26196.47331517 -.00000431  00000+0 -21360-5 0  9995
2 48316  53.1589 224.3621 0001255  74.3826 285.7314 15.31697782287633
STARLINK-2513           
1 48317U 21036AT  26196.31239719 -.00000143  00000+0  71683-5 0  9992
2 48317  53.1581 214.3674 0001150  91.5329 268.5804 15.31694795287775
STARLINK-2509           
1 48318U 21036AU  26196.47404360 -.00000090  00000+0  88728-5 0  9995
2 48318  53.1585 227.3005 0001208  91.8273 268.2867 15.31691325287601
STARLINK-2512           
1 48319U 21036AV  26196.46462658  .00000196  00000+0  18077-4 0  9994
2 48319  53.1589 226.6180 0001201  83.7668 276.3471 15.31694535287611
STARLINK-2029           
1 48320U 21036AW  26196.49296606 -.00000168  00000+0  63573-5 0  9999
2 48320  53.1595 226.7954 0001216  73.4954 286.6181 15.31698524287614
STARLINK-2457           
1 48321U 21036AX  26196.38538189 -.00001631  00000+0 -40814-4 0  9992
2 48321  53.1593 226.9202 0001353  76.0435 284.0717 15.31689393287606
STARLINK-2515           
1 48323U 21036AZ  26196.57180375  .00001251  00000+0  52075-4 0  9993
2 48323  53.1590 226.0252 0001146  81.7531 278.3601 15.31706876287638
STARLINK-2495           
1 48325U 21036BB  26196.57648484 -.00000461  00000+0 -30983-5 0  9994
2 48325  53.1574 226.1331 0001248  87.4592 272.6552 15.31705370287634
STARLINK-2498           
1 48326U 21036BC  26196.56749345  .00016087  00000+0  52884-3 0  9993
2 48326  53.1571 226.1120 0001291  87.9207 272.1942 15.31712031287634
STARLINK-2502           
1 48327U 21036BD  26196.56282789  .00001447  00000+0  58381-4 0  9991
2 48327  53.1594 226.1292 0001167  80.7793 279.3341 15.31705932287637
STARLINK-2504           
1 48328U 21036BE  26196.54849932 -.00000374  00000+0 -29258-6 0  9992
2 48328  53.1590 226.0772 0001186  75.1396 284.9737 15.31693063287625
STARLINK-2510           
1 48329U 21036BF  26196.34841824 -.00000313  00000+0  16862-5 0  9991
2 48329  53.1592 227.0030 0001111  86.7980 273.3149 15.31694770287604
STARLINK-2501           
1 48330U 21036BG  26196.45568506  .00000438  00000+0  25887-4 0  9991
2 48330  53.1586 226.9986 0001093  95.7051 264.4075 15.31699191287617
STARLINK-2514           
1 48331U 21036BH  26196.38714089  .00022686  00000+0  65484-3 0  9998
2 48331  53.1556 226.6092 0005735  16.8131 343.3061 15.35602672287614
STARLINK-2518           
1 48333U 21036BK  26196.46960944 -.00000296  00000+0  22316-5 0  9995
2 48333  53.1591 226.4922 0001009  77.5614 282.5500 15.31695062287629
STARLINK-2470           
1 48334U 21036BL  26196.59544780  .00000673  00000+0  33448-4 0  9991
2 48334  53.1583 225.8951 0001172  84.5159 275.5976 15.31697807287649
STARLINK-2613           
1 48353U 21038A   26196.83090775  .00001255  00000+0  52200-4 0  9995
2 48353  53.1600 121.9080 0001231  89.6192 270.4950 15.31699185286712
STARLINK-2674           
1 48354U 21038B   26196.18307488  .00002125  00000+0  80215-4 0  9990
2 48354  53.1590 125.0083 0001167  94.1644 265.9491 15.31705709286618
STARLINK-2635           
1 48355U 21038C   26196.95208421  .00002119  00000+0  80018-4 0  9997
2 48355  53.1592 121.3193 0001212  96.0890 264.0249 15.31703670286736
STARLINK-2637           
1 48356U 21038D   26196.97543101  .00001518  00000+0  60669-4 0  9999
2 48356  53.1599 121.5083 0001203  75.1072 285.0063 15.31697295286736
STARLINK-2636           
1 48357U 21038E   26196.94743018  .00001611  00000+0  63668-4 0  9992
2 48357  53.1606 121.3977 0001266  92.8001 267.3146 15.31702786286730
STARLINK-2624           
1 48358U 21038F   26196.94276457  .00002683  00000+0  98184-4 0  9992
2 48358  53.1610 121.3787 0001430  95.5590 264.5575 15.31704213286722
STARLINK-2628           
1 48359U 21038G   26196.97077651  .00001166  00000+0  49330-4 0  9995
2 48359  53.1599 121.5948 0001045  81.1664 278.9455 15.31695031286728
STARLINK-2622           
1 48360U 21038H   26196.93810861  .00002563  00000+0  94314-4 0  9995
2 48360  53.1601 121.4284 0001341  82.3350 277.7804 15.31702561286722
STARLINK-2591           
1 48361U 21038J   26196.93344296  .00001974  00000+0  75362-4 0  9997
2 48361  53.1598 121.4406 0001473  79.4199 280.6968 15.31701184286722
STARLINK-2578           
1 48362U 21038K   26196.23901271  .00021498  00000+0  70363-3 0  9991
2 48362  53.1590 124.6644 0001325 116.5354 243.5783 15.31648864286623
STARLINK-2611           
1 48364U 21038M   26196.76292825  .00001033  00000+0  45043-4 0  9990
2 48364  53.1599 111.8895 0001283  79.6333 280.4813 15.31700747286857
