OBJECT_NAME,OBJECT_ID,EPOCH,MEAN_MOTION,ECCENTRICITY,INCLINATION,RA_OF_ASC_NODE,ARG_OF_PERICENTER,MEAN_ANOMALY,EPHEMERIS_TYPE,CLASSIFICATION_TYPE,NORAD_CAT_ID,ELEMENT_SET_NO,REV_AT_EPOCH,BSTAR,MEAN_MOTION_DOT,MEAN_MOTION_DDOT
STARLINK-2061,2021-036AN,2026-07-15T10:04:15.978432,15.31701911,.00016409,53.1600,214.1032,68.1487,291.9689,0,U,48312,999,28779,.279442E-5,-.279E-5,0
STARLINK-2549,2021-036AQ,2026-07-15T07:57:13.494816,15.31696880,.00012923,53.1591,216.9895,82.1467,277.9681,0,U,48314,999,28773,-.1291923E-5,-.405E-5,0
STARLINK-2506,2021-036AR,2026-07-15T13:02:14.855136,15.31693962,.0001105,53.1590,224.0478,82.8021,277.3106,0,U,48315,999,28764,-.41747E-5,-.495E-5,0
STARLINK-2507,2021-036AS,2026-07-15T11:21:34.430688,15.31697782,.00012552,53.1589,224.3621,74.3826,285.7314,0,U,48316,999,28763,-.2136035E-5,-.431E-5,0
STARLINK-2513,2021-036AT,2026-07-15T07:29:51.117216,15.31694795,.00011507,53.1581,214.3674,91.5329,268.5804,0,U,48317,999,28777,.7168265E-5,-.143E-5,0
STARLINK-2509,2021-036AU,2026-07-15T11:22:37.367040,15.31691325,.00012087,53.1585,227.3005,91.8273,268.2867,0,U,48318,999,28760,.8872791E-5,-.9E-6,0
STARLINK-2512,2021-036AV,2026-07-15T11:09:03.736512,15.31694535,.00012014,53.1589,226.6180,83.7668,276.3471,0,U,48319,999,28761,.18076775E-4,.196E-5,0
STARLINK-2029,2021-036AW,2026-07-15T11:49:52.267584,15.31698524,.00012166,53.1595,226.7954,73.4954,286.6181,0,U,48320,999,28761,.6357267E-5,-.168E-5,0
STARLINK-2457,2021-036AX,2026-07-15T09:14:56.995296,15.31689393,.00013535,53.1593,226.9202,76.0435,284.0717,0,U,48321,999,28760,-.40813543E-4,-.1631E-4,0
STARLINK-2515,2021-036AZ,2026-07-15T13:43:23.844000,15.31706876,.0001146,53.1590,226.0252,81.7531,278.3601,0,U,48323,999,28763,.52075E-4,.1251E-4,0
STARLINK-2495,2021-036BB,2026-07-15T13:50:08.290176,15.31705370,.0001248,53.1574,226.1331,87.4592,272.6552,0,U,48325,999,28763,-.30983E-5,-.461E-5,0
STARLINK-2498,2021-036BC,2026-07-15T13:37:11.434080,15.31712031,.0001291,53.1571,226.1120,87.9207,272.1942,0,U,48326,999,28763,.52884E-3,.16087E-3,0
STARLINK-2502,2021-036BD,2026-07-15T13:30:28.329696,15.31705932,.0001167,53.1594,226.1292,80.7793,279.3341,0,U,48327,999,28763,.58381E-4,.1447E-4,0
STARLINK-2504,2021-036BE,2026-07-15T13:09:50.341248,15.31693063,.0001186,53.1590,226.0772,75.1396,284.9737,0,U,48328,999,28762,-.29258E-6,-.374E-5,0
STARLINK-2510,2021-036BF,2026-07-15T08:21:43.335936,15.31694770,.00011115,53.1592,227.0030,86.7980,273.3149,0,U,48329,999,28760,.1686223E-5,-.313E-5,0
STARLINK-2501,2021-036BG,2026-07-15T10:56:11.189184,15.31699191,.0001093,53.1586,226.9986,95.7051,264.4075,0,U,48330,999,28761,.25887436E-4,.438E-5,0
STARLINK-2514,2021-036BH,2026-07-15T09:17:28.972896,15.35602672,.00057355,53.1556,226.6092,16.8131,343.3061,0,U,48331,999,28761,.65483676E-3,.22686E-3,0
STARLINK-2518,2021-036BK,2026-07-15T11:16:14.255616,15.31695062,.00010097,53.1591,226.4922,77.5614,282.5500,0,U,48333,999,28762,.2231611E-5,-.296E-5,0
STARLINK-2470,2021-036BL,2026-07-15T14:17:26.689920,15.31697807,.00011726,53.1583,225.8951,84.5159,275.5976,0,U,48334,999,28764,.33447821E-4,.673E-5,0
STARLINK-2613,2021-038A,2026-07-15T19:56:30.429600,15.31699185,.0001231,53.1600,121.9080,89.6192,270.4950,0,U,48353,999,28671,.52200359E-4,.1255E-4,0
STARLINK-2674,2021-038B,2026-07-15T04:23:37.669632,15.31705709,.00011678,53.1590,125.0083,94.1644,265.9491,0,U,48354,999,28661,.80214876E-4,.2125E-4,0
STARLINK-2635,2021-038C,2026-07-15T22:51:00.075744,15.31703670,.00012127,53.1592,121.3193,96.0890,264.0249,0,U,48355,999,28673,.80017806E-4,.2119E-4,0
STARLINK-2637,2021-038D,2026-07-15T23:24:37.239264,15.31697295,.00012031,53.1599,121.5083,75.1072,285.0063,0,U,48356,999,28673,.60669263E-4,.1518E-4,0
STARLINK-2636,2021-038E,2026-07-15T22:44:17.967552,15.31702786,.00012669,53.1606,121.3977,92.8001,267.3146,0,U,48357,999,28673,.63667602E-4,.1611E-4,0
STARLINK-2624,2021-038F,2026-07-15T22:37:34.858848,15.31704213,.00014309,53.1610,121.3787,95.5590,264.5575,0,U,48358,999,28672,.981841E-4,.2683E-4,0
STARLINK-2628,2021-038G,2026-07-15T23:17:55.090464,15.31695031,.00010457,53.1599,121.5948,81.1664,278.9455,0,U,48359,999,28672,.49330339E-4,.1166E-4,0
STARLINK-2622,2021-038H,2026-07-15T22:30:52.583904,15.31702561,.0001341,53.1601,121.4284,82.3350,277.7804,0,U,48360,999,28672,.94313928E-4,.2563E-4,0
STARLINK-2591,2021-038J,2026-07-15T22:24:09.471744,15.31701184,.00014733,53.1598,121.4406,79.4199,280.6968,0,U,48361,999,28672,.75362155E-4,.1974E-4,0
STARLINK-2578,2021-038K,2026-07-15T05:44:10.698144,15.31648864,.0001325,53.1590,124.6644,116.5354,243.5783,0,U,48362,999,28662,.70362788E-3,.21498E-3,0
STARLINK-2611,2021-038M,2026-07-15T18:18:37.000800,15.31700747,.00012838,53.1599,111.8895,79.6333,280.4813,0,U,48364,999,28685,.45043414E-4,.1033E-4,0
